ICEYE-X1                
1 43114U 18004D   21149.77106862  .00001489  00000+0  63552-4 0  9996
2 43114  97.4052 222.5253 0007902 262.8436  97.1904 15.24447942187730
ICEYE-X2                
1 43800U 18099AU  21149.86216870 -.00000006  00000+0  46088-5 0  9994
2 43800  97.6659 220.8512 0015767 107.0709 253.2249 14.95538116135693
HARBINGER (ICEYE-X3)    
1 44229U 19026E   21149.43834710  .00000691  00000+0  37548-4 0  9992
2 44229  40.0183 131.7420 0006205  78.1279 282.0217 15.21980894114942
ICEYE-X5                
1 44389U 19038C   21149.75035706 -.00000068  00000+0 -69668-6 0  9995
2 44389  97.7779 114.6345 0022437  73.2633 287.1055 14.97035701103865
ICEYE-X4                
1 44390U 19038D   21149.73666197  .00000686  00000+0  64613-4 0  9996
2 44390  97.7756 114.4574 0022630  74.4397 285.9308 14.96949589103863
ICEYE-X7                
1 46496U 20068L   21149.47454045  .00003049  00000+0  24282-3 0  9991
2 46496  97.6859  86.7651 0020118 133.5622 226.7240 15.00961708 36461
ICEYE-X6                
1 46497U 20068M   21149.58568959 -.00001517  00000+0 -11401-3 0  9993
2 46497  97.6950  86.6708 0018264 150.0733 210.1417 15.00912305 36464
ICEYE-X9                
1 47506U 21006CX  21149.75632705  .00000811  00000+0  50470-4 0  9992
2 47506  97.4934 211.2613 0010182 160.3281 343.0290 15.12332844 19216
ICEYE-X8                
1 47510U 21006DB  21149.77129280  .00001342  00000+0  81505-4 0  9991
2 47510  97.4909 211.1810 0009299 159.6477 337.3664 15.12141274 19212
